NORAD_CAT_ID,OBJECT_NAME,OBJECT_TYPE,EPOCH,MEAN_MOTION,ECCENTRICITY,INCLINATION,RA_OF_ASC_NODE,ARG_OF_PERICENTER,MEAN_ANOMALY,BSTAR,MEAN_MOTION_DOT,MEAN_MOTION_DDOT,TLE_LINE0,TLE_LINE1,TLE_LINE2,SEMIMAJOR_AXIS,PERIOD,APOGEE,PERIGEE,DECAYED
52107.0,STARLINK-3658,PAYLOAD,2023-01-06 17:59:51,15.08843154,0.0002855,53.2162,237.3128,32.4492,327.6676,-2.2018e-05,-6.39e-06,0.0,0 STARLINK-3658,1 52107U 22029V   23006.74989657 -.00000639  00000-0 -22018-4 0  9993,2 52107  53.2162 237.3128 0002855  32.4492 327.6676 15.08843154 45977,6917.871,95.437,541.711,537.761,0.0
52107.0,STARLINK-3658,PAYLOAD,2023-01-07 00:21:23,15.08846448,0.0002878999999999,53.216,236.1234,32.0705,328.0462,3.9148e-05,3.35e-06,0.0,0 STARLINK-3658,1 52107U 22029V   23007.01485419  .00000335  00000-0  39148-4 0  9994,2 52107  53.2160 236.1234 0002879  32.0705 328.0462 15.08846448 46012,6917.861,95.437,541.717,537.734,0.0
52107.0,STARLINK-3658,PAYLOAD,2023-01-07 17:50:39,15.08823679,0.0002864,53.2153,232.8528,33.0229,327.0942,-0.00015949,-2.825e-05,0.0,0 STARLINK-3658,1 52107U 22029V   23007.74350742 -.00002825  00000-0 -15949-3 0  9994,2 52107  53.2153 232.8528 0002864  33.0229 327.0942 15.08823679 46124,6917.93,95.439,541.7769999999998,537.814,0.0
52107.0,STARLINK-3658,PAYLOAD,2023-01-07 21:01:25,15.08825378,0.0002892,53.2161,232.257,30.9654,329.1509,-0.0001195,-2.189e-05,0.0,0 STARLINK-3658,1 52107U 22029V   23007.87598745 -.00002189  00000-0 -11950-3 0  9996,2 52107  53.2161 232.2570 0002892  30.9654 329.1509 15.08825378 46145,6917.925,95.438,541.7909999999998,537.789,0.0
52107.0,STARLINK-3658,PAYLOAD,2023-01-08 12:55:16,15.08831756,0.0002892,53.2155,229.2842,32.8657,327.2515,4.8204e-05,4.79e-06,0.0,0 STARLINK-3658,1 52107U 22029V   23008.53839049  .00000479  00000-0  48204-4 0  9996,2 52107  53.2155 229.2842 0002892  32.8657 327.2515 15.08831756 46244,6917.906,95.438,541.771,537.77,0.0
52107.0,STARLINK-3658,PAYLOAD,2023-01-08 20:52:12,15.08833676,0.0002837,53.2151,227.7974,32.8292,327.2876,0.00020817,3.026e-05,0.0,0 STARLINK-3658,1 52107U 22029V   23008.86959231  .00003026  00000-0  20817-3 0  9998,2 52107  53.2151 227.7974 0002837  32.8292 327.2876 15.08833676 46291,6917.9,95.438,541.727,537.802,0.0
52107.0,STARLINK-3658,PAYLOAD,2023-01-09 09:35:17,15.08842701,0.0002991,53.215,225.4187,33.6528,326.4654,0.00040089,6.098e-05,0.0,0 STARLINK-3658,1 52107U 22029V   23009.39951311  .00006098  00000-0  40089-3 0  9993,2 52107  53.2150 225.4187 0002991  33.6528 326.4654 15.08842701 46376,6917.871999999999,95.437,541.806,537.668,0.0
52107.0,STARLINK-3658,PAYLOAD,2023-01-09 15:56:50,15.08848606,0.0002996,53.215,224.2291,33.3256,326.7924,0.00058813,9.087e-05,0.0,0 STARLINK-3658,1 52107U 22029V   23009.66447282  .00009087  00000-0  58813-3 0  9995,2 52107  53.2150 224.2291 0002996  33.3256 326.7924 15.08848606 46417,6917.854,95.437,541.7919999999998,537.646,0.0
52107.0,STARLINK-3658,PAYLOAD,2023-01-09 23:53:46,15.08847737,0.0003041,53.2151,222.7426,33.4622,326.6561,0.00043908,6.708e-05,0.0,0 STARLINK-3658,1 52107U 22029V   23009.99567294  .00006708  00000-0  43908-3 0  9993,2 52107  53.2151 222.7426 0003041  33.4622 326.6561 15.08847737 46466,6917.857,95.437,541.825,537.618,0.0
52107.0,STARLINK-3658,PAYLOAD,2023-01-10 14:12:14,15.08847037,0.0003076,53.2151,220.066,35.5627,324.5569,0.00022084,3.229e-05,0.0,0 STARLINK-3658,1 52107U 22029V   23010.59183130  .00003229  00000-0  22084-3 0  9991,2 52107  53.2151 220.0660 0003076  35.5627 324.5569 15.08847037 46551,6917.859,95.437,541.852,537.596,0.0
52107.0,STARLINK-3658,PAYLOAD,2023-01-10 15:47:37,15.08846709,0.0003072,53.2151,219.7685,35.6247,324.4949,0.00019402,2.801e-05,0.0,0 STARLINK-3658,1 52107U 22029V   23010.65807103  .00002801  00000-0  19402-3 0  9996,2 52107  53.2151 219.7685 0003072  35.6247 324.4949 15.08846709 46565,6917.86,95.437,541.85,537.6,0.0
52107.0,STARLINK-3658,PAYLOAD,2023-01-10 23:44:33,15.08840418,0.0003128,53.2152,218.2823,36.0158,324.1044,6.4233e-05,7.34e-06,0.0,0 STARLINK-3658,1 52107U 22029V   23010.98927369  .00000734  00000-0  64233-4 0  9995,2 52107  53.2152 218.2823 0003128  36.0158 324.1044 15.08840418 46612,6917.879,95.438,541.908,537.58,0.0
52107.0,STARLINK-3658,PAYLOAD,2023-01-11 09:16:52,15.08838635,0.0003253,53.215,216.4982,37.0434,323.0782,-3.1595e-05,-7.92e-06,0.0,0 STARLINK-3658,1 52107U 22029V   23011.38671424 -.00000792  00000-0 -31595-4 0  9999,2 52107  53.2150 216.4982 0003253  37.0434 323.0782 15.08838635 46674,6917.885,95.438,542.0,537.499,0.0
52107.0,STARLINK-3658,PAYLOAD,2023-01-11 20:24:33,15.08845143,0.0003125,53.2152,214.4163,37.8965,322.2246,6.5102e-05,7.48e-06,0.0,0 STARLINK-3658,1 52107U 22029V   23011.85039098  .00000748  00000-0  65102-4 0  9996,2 52107  53.2152 214.4163 0003125  37.8965 322.2246 15.08845143 46746,6917.865,95.437,541.8919999999998,537.568,0.0
52107.0,STARLINK-3658,PAYLOAD,2023-01-12 20:15:22,15.08831868,0.0002955,53.2163,209.956,38.5828,321.5375,-2.1309e-05,-6.28e-06,0.0,0 STARLINK-3658,1 52107U 22029V   23012.84400490 -.00000628  00000-0 -21309-4 0  9994,2 52107  53.2163 209.9560 0002955  38.5828 321.5375 15.08831868 46894,6917.905,95.438,541.814,537.726,0.0
52107.0,STARLINK-3658,PAYLOAD,2023-01-13 05:47:40,15.08832561,0.0002965,53.2165,208.1715,38.8561,321.2644,9.4256e-05,1.212e-05,0.0,0 STARLINK-3658,1 52107U 22029V   23013.24144509  .00001212  00000-0  94256-4 0  9994,2 52107  53.2165 208.1715 0002965  38.8561 321.2644 15.08832561 46951,6917.903,95.438,541.819,537.717,0.0
52107.0,STARLINK-3658,PAYLOAD,2023-01-13 15:19:59,15.08839981,0.0002924,53.2163,206.3869,39.5399,320.5806,0.00010157,1.328e-05,0.0,0 STARLINK-3658,1 52107U 22029V   23013.63888176  .00001328  00000-0  10157-3 0  9997,2 52107  53.2163 206.3869 0002924  39.5399 320.5806 15.08839981 47014,6917.88,95.438,541.768,537.7230000000001,0.0
52107.0,STARLINK-3658,PAYLOAD,2023-01-14 13:35:23,15.08835048,0.0002972,53.2157,202.2233,42.5279,317.5943,0.0001438,2.001e-05,0.0,0 STARLINK-3658,1 52107U 22029V   23014.56624660  .00002001  00000-0  14380-3 0  9997,2 52107  53.2157 202.2233 0002972  42.5279 317.5943 15.08835048 47154,6917.896,95.438,541.817,537.705,0.0
52107.0,STARLINK-3658,PAYLOAD,2023-01-15 11:50:47,15.08840114,0.0002924,53.2157,198.0611,43.3778,316.7444,8.6776e-05,1.093e-05,0.0,0 STARLINK-3658,1 52107U 22029V   23015.49360617  .00001093  00000-0  86776-4 0  9998,2 52107  53.2157 198.0611 0002924  43.3778 316.7444 15.08840114 47298,6917.88,95.438,541.768,537.722,0.0
52107.0,STARLINK-3658,PAYLOAD,2023-01-15 18:12:20,15.088417499999998,0.0002953,53.2155,196.8706,45.7908,314.3326,9.7891e-05,1.27e-05,0.0,0 STARLINK-3658,1 52107U 22029V   23015.75856572  .00001270  00000-0  97891-4 0  9994,2 52107  53.2155 196.8706 0002953  45.7908 314.3326 15.08841750 47335,6917.875,95.437,541.783,537.697,0.0
52107.0,STARLINK-3658,PAYLOAD,2023-01-16 13:16:57,15.08840695,0.0002953999999999,53.2157,193.3026,46.8922,313.2317,0.00011504,1.543e-05,0.0,0 STARLINK-3658,1 52107U 22029V   23016.55344720  .00001543  00000-0  11504-3 0  9999,2 52107  53.2157 193.3026 0002954  46.8922 313.2317 15.08840695 47451,6917.878000000001,95.438,541.7869999999999,537.7,0.0
52107.0,STARLINK-3658,PAYLOAD,2023-01-16 21:13:53,15.08844527,0.0002931999999999,53.2157,191.8158,48.2939,311.8304,0.00017305,2.467e-05,0.0,0 STARLINK-3658,1 52107U 22029V   23016.88464541  .00002467  00000-0  17305-3 0  9990,2 52107  53.2157 191.8158 0002932  48.2939 311.8304 15.08844527 47504,6917.866999999999,95.437,541.76,537.703,0.0
52107.0,STARLINK-3658,PAYLOAD,2023-01-17 11:32:21,15.08839449,0.0002887,53.2156,189.1394,48.0678,312.056,9.44e-05,1.214e-05,0.0,0 STARLINK-3658,1 52107U 22029V   23017.48080802  .00001214  00000-0  94400-4 0  9992,2 52107  53.2156 189.1394 0002887  48.0678 312.0560 15.08839449 47595,6917.882,95.438,541.744,537.75,0.0
52107.0,STARLINK-3658,PAYLOAD,2023-01-17 21:04:40,15.08838302,0.0002896,53.2155,187.3552,50.0227,310.1019,3.5598e-05,2.78e-06,0.0,0 STARLINK-3658,1 52107U 22029V   23017.87824880  .00000278  00000-0  35598-4 0  9999,2 52107  53.2155 187.3552 0002896  50.0227 310.1019 15.08838302 47655,6917.886,95.438,541.754,537.747,0.0
52107.0,STARLINK-3658,PAYLOAD,2023-01-18 12:58:32,15.08837712,0.0002886,53.2167,184.3816,52.0526,308.0727,0.00011685,1.572e-05,0.0,0 STARLINK-3658,1 52107U 22029V   23018.54064867  .00001572  00000-0  11685-3 0  9993,2 52107  53.2167 184.3816 0002886  52.0526 308.0727 15.08837712 47758,6917.887,95.438,541.749,537.756,0.0
52107.0,STARLINK-3658,PAYLOAD,2023-01-18 17:44:41,15.08844309,0.0002773,53.2172,183.4898,49.9792,310.1444,0.00011992,1.621e-05,0.0,0 STARLINK-3658,1 52107U 22029V   23018.73936432  .00001621  00000-0  11992-3 0  9996,2 52107  53.2172 183.4898 0002773  49.9792 310.1444 15.08844309 47782,6917.866999999999,95.437,541.651,537.814,0.0
52107.0,STARLINK-3658,PAYLOAD,2023-01-19 03:17:00,15.08838058,0.0002781,53.2176,181.7059,52.0077,308.1166,0.00012155,1.646e-05,0.0,0 STARLINK-3658,1 52107U 22029V   23019.13680872  .00001646  00000-0  12155-3 0  9994,2 52107  53.2176 181.7059 0002781  52.0077 308.1166 15.08838058 47845,6917.886,95.438,541.675,537.827,0.0
52107.0,STARLINK-3658,PAYLOAD,2023-01-19 11:13:56,15.08832344,0.000291,53.2164,180.2201,56.5962,303.5308,2.9127e-05,1.75e-06,0.0,0 STARLINK-3658,1 52107U 22029V   23019.46801509  .00000175  00000-0  29127-4 0  9996,2 52107  53.2164 180.2201 0002910  56.5962 303.5308 15.08832344 47895,6917.904,95.438,541.7819999999999,537.756,0.0
52107.0,STARLINK-3658,PAYLOAD,2023-01-20 09:29:20,15.08832731,0.0002816,53.2178,176.05700000000002,58.0523,302.0743,6.2113e-05,7.000000000000001e-06,0.0,0 STARLINK-3658,1 52107U 22029V   23020.39537656  .00000700  00000-0  62113-4 0  9995,2 52107  53.2178 176.0570 0002816  58.0523 302.0743 15.08832731 48031,6917.903,95.438,541.716,537.82,0.0
